CCSDS_OMM_VERS = 2.0
CREATION_DATE  = 
ORIGINATOR     = 

OBJECT_NAME    = SL-3 R/B
OBJECT_ID      = 1982-079B
CENTER_NAME    = EARTH
REF_FRAME      = TEME
TIME_SYSTEM    = UTC
MEAN_ELEMENT_THEORY = SGP/SGP4

EPOCH          = 2025-12-22T12:45:47.909664
MEAN_MOTION    = 15.23695614
ECCENTRICITY   = .002697
INCLINATION    = 81.1482
RA_OF_ASC_NODE = 284.1178
ARG_OF_PERICENTER = 67.6361
MEAN_ANOMALY   = 292.7726

EPHEMERIS_TYPE = 0
CLASSIFICATION_TYPE = U
NORAD_CAT_ID   = 13403
ELEMENT_SET_NO = 999
REV_AT_EPOCH   = 36594
BSTAR          = .24492002E-3
MEAN_MOTION_DOT = .5964E-4
MEAN_MOTION_DDOT = 0

CCSDS_OMM_VERS = 2.0
CREATION_DATE  = 
ORIGINATOR     = 

OBJECT_NAME    = SL-14 R/B
OBJECT_ID      = 1982-092B
CENTER_NAME    = EARTH
REF_FRAME      = TEME
TIME_SYSTEM    = UTC
MEAN_ELEMENT_THEORY = SGP/SGP4

EPOCH          = 2025-12-22T13:37:50.739168
MEAN_MOTION    = 14.86564475
ECCENTRICITY   = .00199194
INCLINATION    = 82.5674
RA_OF_ASC_NODE = 213.5203
ARG_OF_PERICENTER = 193.0067
MEAN_ANOMALY   = 188.9720

EPHEMERIS_TYPE = 0
CLASSIFICATION_TYPE = U
NORAD_CAT_ID   = 13553
ELEMENT_SET_NO = 999
REV_AT_EPOCH   = 31747
BSTAR          = .44726999E-4
MEAN_MOTION_DOT = .422E-5
MEAN_MOTION_DDOT = 0

CCSDS_OMM_VERS = 2.0
CREATION_DATE  = 
ORIGINATOR     = 

OBJECT_NAME    = SL-3 R/B
OBJECT_ID      = 1983-010B
CENTER_NAME    = EARTH
REF_FRAME      = TEME
TIME_SYSTEM    = UTC
MEAN_ELEMENT_THEORY = SGP/SGP4

EPOCH          = 2025-12-22T08:47:10.817952
MEAN_MOTION    = 15.43703186
ECCENTRICITY   = .00166576
INCLINATION    = 81.1051
RA_OF_ASC_NODE = 96.8674
ARG_OF_PERICENTER = 317.0227
MEAN_ANOMALY   = 42.9714

EPHEMERIS_TYPE = 0
CLASSIFICATION_TYPE = U
NORAD_CAT_ID   = 13819
ELEMENT_SET_NO = 999
REV_AT_EPOCH   = 34600
BSTAR          = .34829896E-3
MEAN_MOTION_DOT = .15834E-3
MEAN_MOTION_DDOT = 0

CCSDS_OMM_VERS = 2.0
CREATION_DATE  = 
ORIGINATOR     = 

OBJECT_NAME    = SL-3 R/B
OBJECT_ID      = 1983-075B
CENTER_NAME    = EARTH
REF_FRAME      = TEME
TIME_SYSTEM    = UTC
MEAN_ELEMENT_THEORY = SGP/SGP4

EPOCH          = 2025-12-22T13:23:10.548672
MEAN_MOTION    = 15.36320089
ECCENTRICITY   = .00237782
INCLINATION    = 97.6104
RA_OF_ASC_NODE = 353.3716
ARG_OF_PERICENTER = 141.2647
MEAN_ANOMALY   = 219.0307

EPHEMERIS_TYPE = 0
CLASSIFICATION_TYPE = U
NORAD_CAT_ID   = 14208
ELEMENT_SET_NO = 999
REV_AT_EPOCH   = 31830
BSTAR          = .29835622E-3
MEAN_MOTION_DOT = .1058E-3
MEAN_MOTION_DDOT = 0

CCSDS_OMM_VERS = 2.0
CREATION_DATE  = 
ORIGINATOR     = 

OBJECT_NAME    = COSMOS 1536
OBJECT_ID      = 1984-013A
CENTER_NAME    = EARTH
REF_FRAME      = TEME
TIME_SYSTEM    = UTC
MEAN_ELEMENT_THEORY = SGP/SGP4

EPOCH          = 2025-12-22T06:28:55.793280
MEAN_MOTION    = 15.22622235
ECCENTRICITY   = .00142751
INCLINATION    = 82.5441
RA_OF_ASC_NODE = 184.7121
ARG_OF_PERICENTER = 190.1614
MEAN_ANOMALY   = 169.9337

EPHEMERIS_TYPE = 0
CLASSIFICATION_TYPE = U
NORAD_CAT_ID   = 14699
ELEMENT_SET_NO = 999
REV_AT_EPOCH   = 26083
BSTAR          = .29710751E-3
MEAN_MOTION_DOT = .6958E-4
MEAN_MOTION_DDOT = 0

CCSDS_OMM_VERS = 2.0
CREATION_DATE  = 
ORIGINATOR     = 

OBJECT_NAME    = SL-14 R/B
OBJECT_ID      = 1984-027B
CENTER_NAME    = EARTH
REF_FRAME      = TEME
TIME_SYSTEM    = UTC
MEAN_ELEMENT_THEORY = SGP/SGP4

EPOCH          = 2025-12-22T07:40:57.115200
MEAN_MOTION    = 14.85884174
ECCENTRICITY   = .00167253
INCLINATION    = 82.5420
RA_OF_ASC_NODE = 317.5715
ARG_OF_PERICENTER = 226.2906
MEAN_ANOMALY   = 133.6926

EPHEMERIS_TYPE = 0
CLASSIFICATION_TYPE = U
NORAD_CAT_ID   = 14820
ELEMENT_SET_NO = 999
REV_AT_EPOCH   = 23614
BSTAR          = .54890514E-4
MEAN_MOTION_DOT = .503E-5
MEAN_MOTION_DDOT = 0

CCSDS_OMM_VERS = 2.0
CREATION_DATE  = 
ORIGINATOR     = 

OBJECT_NAME    = SL-8 R/B
OBJECT_ID      = 1985-006B
CENTER_NAME    = EARTH
REF_FRAME      = TEME
TIME_SYSTEM    = UTC
MEAN_ELEMENT_THEORY = SGP/SGP4

EPOCH          = 2025-12-22T13:58:00.497280
MEAN_MOTION    = 14.37726775
ECCENTRICITY   = .00191122
INCLINATION    = 74.0461
RA_OF_ASC_NODE = 43.0269
ARG_OF_PERICENTER = 333.1770
MEAN_ANOMALY   = 188.7139

EPHEMERIS_TYPE = 0
CLASSIFICATION_TYPE = U
NORAD_CAT_ID   = 15483
ELEMENT_SET_NO = 999
REV_AT_EPOCH   = 14294
BSTAR          = .91172E-4
MEAN_MOTION_DOT = .248E-5
MEAN_MOTION_DDOT = 0

CCSDS_OMM_VERS = 2.0
CREATION_DATE  = 
ORIGINATOR     = 

OBJECT_NAME    = SL-12 R/B(2)
OBJECT_ID      = 1985-042D
CENTER_NAME    = EARTH
REF_FRAME      = TEME
TIME_SYSTEM    = UTC
MEAN_ELEMENT_THEORY = SGP/SGP4

EPOCH          = 2025-12-22T11:24:54.503712
MEAN_MOTION    = 14.21954776
ECCENTRICITY   = .00373653
INCLINATION    = 71.1073
RA_OF_ASC_NODE = 250.8523
ARG_OF_PERICENTER = 247.1741
MEAN_ANOMALY   = 285.4954

EPHEMERIS_TYPE = 0
CLASSIFICATION_TYPE = U
NORAD_CAT_ID   = 15772
ELEMENT_SET_NO = 999
REV_AT_EPOCH   = 10341
BSTAR          = .53867771E-4
MEAN_MOTION_DOT = .72E-6
MEAN_MOTION_DDOT = 0

CCSDS_OMM_VERS = 2.0
CREATION_DATE  = 
ORIGINATOR     = 

OBJECT_NAME    = SL-14 R/B
OBJECT_ID      = 1985-069B
CENTER_NAME    = EARTH
REF_FRAME      = TEME
TIME_SYSTEM    = UTC
MEAN_ELEMENT_THEORY = SGP/SGP4

EPOCH          = 2025-12-22T12:43:48.167904
MEAN_MOTION    = 14.86335218
ECCENTRICITY   = .00203376
INCLINATION    = 82.5273
RA_OF_ASC_NODE = 97.4991
ARG_OF_PERICENTER = 88.4126
MEAN_ANOMALY   = 271.9420

EPHEMERIS_TYPE = 0
CLASSIFICATION_TYPE = U
NORAD_CAT_ID   = 15945
ELEMENT_SET_NO = 999
REV_AT_EPOCH   = 16137
BSTAR          = .55576376E-4
MEAN_MOTION_DOT = .516E-5
MEAN_MOTION_DDOT = 0

CCSDS_OMM_VERS = 2.0
CREATION_DATE  = 
ORIGINATOR     = 

OBJECT_NAME    = SL-16 R/B
OBJECT_ID      = 1985-097B
CENTER_NAME    = EARTH
REF_FRAME      = TEME
TIME_SYSTEM    = UTC
MEAN_ELEMENT_THEORY = SGP/SGP4

EPOCH          = 2025-12-22T04:15:52.867872
MEAN_MOTION    = 14.16587872
ECCENTRICITY   = .00073261
INCLINATION    = 71.0038
RA_OF_ASC_NODE = 303.7333
ARG_OF_PERICENTER = 355.7060
MEAN_ANOMALY   = 99.1411

EPHEMERIS_TYPE = 0
CLASSIFICATION_TYPE = U
NORAD_CAT_ID   = 16182
ELEMENT_SET_NO = 999
REV_AT_EPOCH   = 7625
BSTAR          = -.16142649E-4
MEAN_MOTION_DOT = -.8E-6
MEAN_MOTION_DDOT = 0

CCSDS_OMM_VERS = 2.0
CREATION_DATE  = 
ORIGINATOR     = 

OBJECT_NAME    = SL-14 R/B
OBJECT_ID      = 1986-006B
CENTER_NAME    = EARTH
REF_FRAME      = TEME
TIME_SYSTEM    = UTC
MEAN_ELEMENT_THEORY = SGP/SGP4

EPOCH          = 2025-12-22T09:24:33.362784
MEAN_MOTION    = 14.86683269
ECCENTRICITY   = .00770046
INCLINATION    = 82.5268
RA_OF_ASC_NODE = 332.4684
ARG_OF_PERICENTER = 167.7349
MEAN_ANOMALY   = 192.5767

EPHEMERIS_TYPE = 0
CLASSIFICATION_TYPE = U
NORAD_CAT_ID   = 16496
ELEMENT_SET_NO = 999
REV_AT_EPOCH   = 13772
BSTAR          = .56571155E-4
MEAN_MOTION_DOT = .558E-5
MEAN_MOTION_DDOT = 0

CCSDS_OMM_VERS = 2.0
CREATION_DATE  = 
ORIGINATOR     = 

OBJECT_NAME    = COSMOS 1743
OBJECT_ID      = 1986-034A
CENTER_NAME    = EARTH
REF_FRAME      = TEME
TIME_SYSTEM    = UTC
MEAN_ELEMENT_THEORY = SGP/SGP4

EPOCH          = 2025-12-22T12:23:46.957344
MEAN_MOTION    = 15.52676114
ECCENTRICITY   = .00049545
INCLINATION    = 82.5349
RA_OF_ASC_NODE = 154.4327
ARG_OF_PERICENTER = 211.6766
MEAN_ANOMALY   = 148.4189

EPHEMERIS_TYPE = 0
CLASSIFICATION_TYPE = U
NORAD_CAT_ID   = 16719
ELEMENT_SET_NO = 999
REV_AT_EPOCH   = 16825
BSTAR          = .51536195E-3
MEAN_MOTION_DOT = .31878E-3
MEAN_MOTION_DDOT = 0

