SL-3 R/B                
1 13403U 82079B   25356.53180451  .00005964  00000+0  24492-3 0  9992
2 13403  81.1482 284.1178 0026970  67.6361 292.7726 15.23695614365945
SL-14 R/B               
1 13553U 82092B   25356.56794837  .00000422  00000+0  44727-4 0  9993
2 13553  82.5674 213.5203 0019919 193.0067 188.9720 14.86564475317479
SL-3 R/B                
1 13819U 83010B   25356.36609743  .00015834  00000+0  34830-3 0  9994
2 13819  81.1051  96.8674 0016657 317.0227  42.9714 15.43703186346005
SL-3 R/B                
1 14208U 83075B   25356.55776098  .00010580  00000+0  29836-3 0  9990
2 14208  97.6104 353.3716 0023778 141.2647 219.0307 15.36320089318308
COSMOS 1536             
1 14699U 84013A   25356.27009020  .00006958  00000+0  29711-3 0  9996
2 14699  82.5441 184.7121 0014275 190.1614 169.9337 15.22622235260837
SL-14 R/B               
1 14820U 84027B   25356.32010550  .00000503  00000+0  54891-4 0  9991
2 14820  82.5420 317.5715 0016725 226.2906 133.6926 14.85884174236141
SL-8 R/B                
1 15483U 85006B   25356.58195020  .00000248  00000+0  91172-4 0  9998
2 15483  74.0461  43.0269 0019112 333.1770 188.7139 14.37726775142943
SL-12 R/B(2)            
1 15772U 85042D   25356.47563083  .00000072  00000+0  53868-4 0  9990
2 15772  71.1073 250.8523 0037365 247.1741 285.4954 14.21954776103410
SL-14 R/B               
1 15945U 85069B   25356.53041861  .00000516  00000+0  55576-4 0  9994
2 15945  82.5273  97.4991 0020337  88.4126 271.9420 14.86335218161370
SL-16 R/B               
1 16182U 85097B   25356.17769523 -.00000080  00000+0 -16143-4 0  9996
2 16182  71.0038 303.7333 0007326 355.7060  99.1411 14.16587872 76259
SL-14 R/B               
1 16496U 86006B   25356.39205281  .00000558  00000+0  56571-4 0  9992
2 16496  82.5268 332.4684 0077004 167.7349 192.5767 14.86683269137724
COSMOS 1743             
1 16719U 86034A   25356.51651571  .00031878  00000+0  51536-3 0  9996
2 16719  82.5349 154.4327 0004954 211.6766 148.4189 15.52676114168259
